[{"OBJECT_NAME":"STARLINK-35726","OBJECT_ID":"2025-247R","EPOCH":"2026-03-09T15:50:19.285152","MEAN_MOTION":15.30190344,"ECCENTRICITY":0.00012421,"INCLINATION":53.1602,"RA_OF_ASC_NODE":191.2591,"ARG_OF_PERICENTER":63.1435,"MEAN_ANOMALY":296.9692,"EPHEMERIS_TYPE":0,"CLASSIFICATION_TYPE":"U","NORAD_CAT_ID":66280,"ELEMENT_SET_NO":999,"REV_AT_EPOCH":2103,"BSTAR":0.0009538783,"MEAN_MOTION_DOT":0.0002799,"MEAN_MOTION_DDOT":0},{"OBJECT_NAME":"COSMOS 1461","OBJECT_ID":"1983-044A","EPOCH":"2026-03-09T23:27:40.254336","MEAN_MOTION":15.35034079,"ECCENTRICITY":0.00529955,"INCLINATION":64.9902,"RA_OF_ASC_NODE":19.3405,"ARG_OF_PERICENTER":227.9657,"MEAN_ANOMALY":131.6963,"EPHEMERIS_TYPE":0,"CLASSIFICATION_TYPE":"U","NORAD_CAT_ID":14064,"ELEMENT_SET_NO":999,"REV_AT_EPOCH":20189,"BSTAR":0.00068784348,"MEAN_MOTION_DOT":0.00024451,"MEAN_MOTION_DDOT":0}]
